QIANFAN-97              
1 66039U 25233G   26019.58339952  .00000089  00000+0  11939-3 0  9993
2 66039  88.9922  58.2423 0001943  91.6343 268.5030 13.50991869 13123
QIANFAN-98              
1 66040U 25233H   26019.49933482  .00000113  00000+0  10207-3 0  9998
2 66040  88.9922  58.0310 0012051 295.2040  64.7876 13.76537172 13233
QIANFAN-99              
1 66041U 25233J   26019.52164911  .00000060  00000+0  74420-4 0  9995
2 66041  88.9930  58.2492 0001795 310.9700  49.1295 13.50976529 13111
QIANFAN-100             
1 66042U 25233K   26019.51341877  .00000031  00000+0  28736-4 0  9990
2 66042  88.9888  58.1596 0001716 291.4026  68.6941 13.50967116 13166
QIANFAN-101             
1 66043U 25233L   26019.61047267  .00000184  00000+0  70016-4 0  9995
2 66043  88.9922  57.6602 0012505 270.9415  89.0346 14.26695545 13445
QIANFAN-102             
1 66044U 25233M   26019.45106697  .00000069  00000+0  74838-4 0  9999
2 66044  88.9922  58.1872 0013313 289.8210  70.1512 13.61054064 13147
QIANFAN-103             
1 66045U 25233N   26019.61207775  .00000077  00000+0  10138-3 0  9998
2 66045  88.9921  58.2477 0000681 284.3760  75.7316 13.51013833 13122
QIANFAN-104             
1 66046U 25233P   26019.44625968  .00000109  00000+0  11612-3 0  9992
2 66046  88.9925  58.1715 0012487 290.0685  69.9130 13.66568204 13153
